{"type": "FeatureCollection", "features": [ {"type": "Feature", "properties": {"norad_id": 39019, "name": "PLEIADES 1B", "group": "resource", "lat": 27.699437771630684, "lon": -102.79811572387334, "alt_km": 696.3145093780822, "timestamp": "2025-12-26T10:30:49.916247+00:00", "meta": {"OBJECT_NAME": "PLEIADES 1B", "OBJECT_ID": "2012-068A", "EPOCH": "2025-12-26T04:52:50.107008", "MEAN_MOTION": 14.58565033, "ECCENTRICITY": 0.000113, "INCLINATION": 98.1775, "RA_OF_ASC_NODE": 72.6414, "ARG_OF_PERICENTER": 87.0712, "MEAN_ANOMALY": 273.0617, "EPHEMERIS_TYPE": 0, "CLASSIFICATION_TYPE": "U", "NORAD_CAT_ID": 39019, "ELEMENT_SET_NO": 999, "REV_AT_EPOCH": 69563, "BSTAR": 0.00010189, "MEAN_MOTION_DOT": 4.28e-06, "MEAN_MOTION_DDOT": 0}, "tle": {"line1": "1 39019U 12068A   25360.20335772  .00000428  00000+0  10189-3 0  9999", "line2": "2 39019  98.1775  72.6414 0001130  87.0712 273.0617 14.58565033695630"}}, "geometry": {"type": "Point", "coordinates": [-102.79811572387334, 27.699437771630684]}}, {"type": "Feature", "properties": {"norad_id": 39030, "name": "GOKTURK 2", "group": "resource", "lat": 67.56536258352828, "lon": 40.51609827948264, "alt_km": 636.5743396009466, "timestamp": "2025-12-26T10:30:49.916258+00:00", "meta": {"OBJECT_NAME": "GOKTURK 2", "OBJECT_ID": "2012-073A", "EPOCH": "2025-12-26T03:30:03.877344", "MEAN_MOTION": 14.75310526, "ECCENTRICITY": 0.0001461, "INCLINATION": 97.6885, "RA_OF_ASC_NODE": 201.1398, "ARG_OF_PERICENTER": 106.0442, "MEAN_ANOMALY": 254.0929, "EPHEMERIS_TYPE": 0, "CLASSIFICATION_TYPE": "U", "NORAD_CAT_ID": 39030, "ELEMENT_SET_NO": 999, "REV_AT_EPOCH": 69899, "BSTAR": 0.00015663, "MEAN_MOTION_DOT": 1.014e-05, "MEAN_MOTION_DDOT": 0}, "tle": {"line1": "1 39030U 12073A   25360.14587821  .00001014  00000+0  15663-3 0  9999", "line2": "2 39030  97.6885 201.1398 0001461 106.0442 254.0929 14.75310526698999"}}, "geometry": {"type": "Point", "coordinates": [40.51609827948264, 67.56536258352828]}}, {"type": "Feature", "properties": {"norad_id": 39084, "name": "LANDSAT 8", "group": "resource", "lat": -69.18077821217611, "lon": -133.99295912678775, "alt_km": 710.4533865959647, "timestamp": "2025-12-26T10:30:49.916268+00:00", "meta": {"OBJECT_NAME": "LANDSAT 8", "OBJECT_ID": "2013-008A", "EPOCH": "2025-12-26T04:25:20.402688", "MEAN_MOTION": 14.57115634, "ECCENTRICITY": 0.0001046, "INCLINATION": 98.2055, "RA_OF_ASC_NODE": 68.0583, "ARG_OF_PERICENTER": 93.4782, "MEAN_ANOMALY": 266.6536, "EPHEMERIS_TYPE": 0, "CLASSIFICATION_TYPE": "U", "NORAD_CAT_ID": 39084, "ELEMENT_SET_NO": 999, "REV_AT_EPOCH": 67270, "BSTAR": 9.8606e-05, "MEAN_MOTION_DOT": 3.99e-06, "MEAN_MOTION_DDOT": 0}, "tle": {"line1": "1 39084U 13008A   25360.18426392  .00000399  00000+0  98606-4 0  9990", "line2": "2 39084  98.2055  68.0583 0001046  93.4782 266.6536 14.57115634672702"}}, "geometry": {"type": "Point", "coordinates": [-133.99295912678775, -69.18077821217611]}}, {"type": "Feature", "properties": {"norad_id": 39086, "name": "SARAL", "group": "resource", "lat": 61.264196062302446, "lon": 20.115223920187965, "alt_km": 774.7971916190445, "timestamp": "2025-12-26T10:30:49.916279+00:00", "meta": {"OBJECT_NAME": "SARAL", "OBJECT_ID": "2013-009A", "EPOCH": "2025-12-26T03:15:48.576096", "MEAN_MOTION": 14.32761541, "ECCENTRICITY": 0.0002958, "INCLINATION": 98.5504, "RA_OF_ASC_NODE": 183.8915, "ARG_OF_PERICENTER": 83.297, "MEAN_ANOMALY": 276.855, "EPHEMERIS_TYPE": 0, "CLASSIFICATION_TYPE": "U", "NORAD_CAT_ID": 39086, "ELEMENT_SET_NO": 999, "REV_AT_EPOCH": 67082, "BSTAR": 6.082e-05, "MEAN_MOTION_DOT": 1.22e-06, "MEAN_MOTION_DDOT": 0}, "tle": {"line1": "1 39086U 13009A   25360.13597889  .00000122  00000+0  60820-4 0  9999", "line2": "2 39086  98.5504 183.8915 0002958  83.2970 276.8550 14.32761541670827"}}, "geometry": {"type": "Point", "coordinates": [20.115223920187965, 61.264196062302446]}}, {"type": "Feature", "properties": {"norad_id": 39150, "name": "GAOFEN-1", "group": "resource", "lat": -68.01624285072462, "lon": -129.3471635641381, "alt_km": 658.6654369869711, "timestamp": "2025-12-26T10:30:49.916289+00:00", "meta": {"OBJECT_NAME": "GAOFEN-1", "OBJECT_ID": "2013-018A", "EPOCH": "2025-12-26T04:30:35.349696", "MEAN_MOTION": 14.76503745, "ECCENTRICITY": 0.0018561, "INCLINATION": 97.9307, "RA_OF_ASC_NODE": 70.608, "ARG_OF_PERICENTER": 102.3629, "MEAN_ANOMALY": 257.966, "EPHEMERIS_TYPE": 0, "CLASSIFICATION_TYPE": "U", "NORAD_CAT_ID": 39150, "ELEMENT_SET_NO": 999, "REV_AT_EPOCH": 68271, "BSTAR": 0.0001448, "MEAN_MOTION_DOT": 9.6e-06, "MEAN_MOTION_DDOT": 0}, "tle": {"line1": "1 39150U 13018A   25360.18790914  .00000960  00000+0  14480-3 0  9990", "line2": "2 39150  97.9307  70.6080 0018561 102.3629 257.9660 14.76503745682711"}}, "geometry": {"type": "Point", "coordinates": [-129.3471635641381, -68.01624285072462]}}, {"type": "Feature", "properties": {"norad_id": 39160, "name": "VNREDSAT 1", "group": "resource", "lat": 76.15264252676195, "lon": -90.30869795023092, "alt_km": 669.2857624099252, "timestamp": "2025-12-26T10:30:49.916299+00:00", "meta": {"OBJECT_NAME": "VNREDSAT 1", "OBJECT_ID": "2013-021B", "EPOCH": "2025-12-26T03:29:45.075840", "MEAN_MOTION": 14.64942821, "ECCENTRICITY": 0.0001148, "INCLINATION": 97.935, "RA_OF_ASC_NODE": 54.9494, "ARG_OF_PERICENTER": 84.0637, "MEAN_ANOMALY": 276.0697, "EPHEMERIS_TYPE": 0, "CLASSIFICATION_TYPE": "U", "NORAD_CAT_ID": 39160, "ELEMENT_SET_NO": 999, "REV_AT_EPOCH": 67495, "BSTAR": 0.00016733, "MEAN_MOTION_DOT": 8.5e-06, "MEAN_MOTION_DDOT": 0}, "tle": {"line1": "1 39160U 13021B   25360.14566060  .00000850  00000+0  16733-3 0  9995", "line2": "2 39160  97.9350  54.9494 0001148  84.0637 276.0697 14.64942821674950"}}, "geometry": {"type": "Point", "coordinates": [-90.30869795023092, 76.15264252676195]}}, {"type": "Feature", "properties": {"norad_id": 39227, "name": "ARIRANG-5 (KOMPSAT-5)", "group": "resource", "lat": -31.239447962717527, "lon": -170.79698581328273, "alt_km": 558.2693566243443, "timestamp": "2025-12-26T10:30:49.916310+00:00", "meta": {"OBJECT_NAME": "ARIRANG-5 (KOMPSAT-5)", "OBJECT_ID": "2013-042A", "EPOCH": "2025-12-26T04:16:07.834944", "MEAN_MOTION": 15.04486659, "ECCENTRICITY": 0.0002969, "INCLINATION": 97.6166, "RA_OF_ASC_NODE": 184.2909, "ARG_OF_PERICENTER": 33.4961, "MEAN_ANOMALY": 326.6453, "EPHEMERIS_TYPE": 0, "CLASSIFICATION_TYPE": "U", "NORAD_CAT_ID": 39227, "ELEMENT_SET_NO": 999, "REV_AT_EPOCH": 67784, "BSTAR": 0.00011036, "MEAN_MOTION_DOT": 1.484e-05, "MEAN_MOTION_DDOT": 0}, "tle": {"line1": "1 39227U 13042A   25360.17786846  .00001484  00000+0  11036-3 0  9996", "line2": "2 39227  97.6166 184.2909 0002969  33.4961 326.6453 15.04486659677844"}}, "geometry": {"type": "Point", "coordinates": [-170.79698581328273, -31.239447962717527]}}, {"type": "Feature", "properties": {"norad_id": 39418, "name": "SKYSAT-A", "group": "resource", "lat": -26.909800236336327, "lon": 54.01617278371501, "alt_km": 549.1766882373795, "timestamp": "2025-12-26T10:30:49.916320+00:00", "meta": {"OBJECT_NAME": "SKYSAT-A", "OBJECT_ID": "2013-066C", "EPOCH": "2025-12-26T02:41:27.845376", "MEAN_MOTION": 15.11697781, "ECCENTRICITY": 0.0021739, "INCLINATION": 97.4086, "RA_OF_ASC_NODE": 49.9135, "ARG_OF_PERICENTER": 188.7352, "MEAN_ANOMALY": 171.3503, "EPHEMERIS_TYPE": 0, "CLASSIFICATION_TYPE": "U", "NORAD_CAT_ID": 39418, "ELEMENT_SET_NO": 999, "REV_AT_EPOCH": 66232, "BSTAR": 0.00020438, "MEAN_MOTION_DOT": 3.435e-05, "MEAN_MOTION_DDOT": 0}, "tle": {"line1": "1 39418U 13066C   25360.11212784  .00003435  00000+0  20438-3 0  9997", "line2": "2 39418  97.4086  49.9135 0021739 188.7352 171.3503 15.11697781662323"}}, "geometry": {"type": "Point", "coordinates": [54.01617278371501, -26.909800236336327]}}, {"type": "Feature", "properties": {"norad_id": 39419, "name": "DUBAISAT-2", "group": "resource", "lat": -43.69661962262293, "lon": -2.3957993118396272, "alt_km": 543.0134261324165, "timestamp": "2025-12-26T10:30:49.916330+00:00", "meta": {"OBJECT_NAME": "DUBAISAT-2", "OBJECT_ID": "2013-066D", "EPOCH": "2025-12-26T05:55:59.408832", "MEAN_MOTION": 15.08489138, "ECCENTRICITY": 0.0009772, "INCLINATION": 97.4469, "RA_OF_ASC_NODE": 350.2395, "ARG_OF_PERICENTER": 268.4952, "MEAN_ANOMALY": 91.5157, "EPHEMERIS_TYPE": 0, "CLASSIFICATION_TYPE": "U", "NORAD_CAT_ID": 39419, "ELEMENT_SET_NO": 999, "REV_AT_EPOCH": 66030, "BSTAR": 0.00047897, "MEAN_MOTION_DOT": 7.416e-05, "MEAN_MOTION_DDOT": 0}, "tle": {"line1": "1 39419U 13066D   25360.24721538  .00007416  00000+0  47897-3 0  9995", "line2": "2 39419  97.4469 350.2395 0009772 268.4952  91.5157 15.08489138660305"}}, "geometry": {"type": "Point", "coordinates": [-2.3957993118396272, -43.69661962262293]}}, {"type": "Feature", "properties": {"norad_id": 39574, "name": "GPM-CORE", "group": "resource", "lat": 54.97164870145494, "lon": -54.99406854634161, "alt_km": 430.51735279697004, "timestamp": "2025-12-26T10:30:49.916341+00:00", "meta": {"OBJECT_NAME": "GPM-CORE", "OBJECT_ID": "2014-009C", "EPOCH": "2025-12-26T00:41:34.647072", "MEAN_MOTION": 15.44672423, "ECCENTRICITY": 0.0009052, "INCLINATION": 64.9728, "RA_OF_ASC_NODE": 168.1776, "ARG_OF_PERICENTER": 251.2366, "MEAN_ANOMALY": 108.7793, "EPHEMERIS_TYPE": 0, "CLASSIFICATION_TYPE": "U", "NORAD_CAT_ID": 39574, "ELEMENT_SET_NO": 999, "REV_AT_EPOCH": 67106, "BSTAR": 0.00019234, "MEAN_MOTION_DOT": 8.785e-05, "MEAN_MOTION_DDOT": 0}, "tle": {"line1": "1 39574U 14009C   25360.02887323  .00008785  00000+0  19234-3 0  9990", "line2": "2 39574  64.9728 168.1776 0009052 251.2366 108.7793 15.44672423671066"}}, "geometry": {"type": "Point", "coordinates": [-54.99406854634161, 54.97164870145494]}}]}